EUTELSAT 21B            
1 38992U 12062B   25340.50233020  .00000137  00000+0  00000+0 0  9990
2 38992   0.0664 352.3120 0003191 271.4935  14.1776  1.00269729 47890
EUTELSAT 70B            
1 39020U 12069A   25340.51203692 -.00000037  00000+0  00000+0 0  9993
2 39020   0.0640   8.8131 0004301 235.1870  86.3898  1.00271902 47578
EUTELSAT 117 WEST A     
1 39122U 13012A   25340.47494334 -.00000006  00000+0  00000+0 0  9991
2 39122   0.0156 325.4379 0003161 290.4189 233.8432  1.00269906 46501
EUTELSAT 7B             
1 39163U 13022A   25340.43030782  .00000055  00000+0  00000+0 0  9999
2 39163   0.0687   7.6714 0004436 304.4840 285.2134  1.00270399 46028
EXPRESS-AT1             
1 39612U 14010A   25340.50917690  .00000086  00000+0  00000+0 0  9990
2 39612   0.0167 303.0576 0000569 237.1051 134.6883  1.00271588 42887
EXPRESS-AT2             
1 39613U 14010B   25340.45448988  .00000000  00000+0  00000+0 0  9990
2 39613   0.0189 349.4480 0001356 293.6109  95.9052  1.00269336 42566
EUTELSAT 3B             
1 39773U 14030A   25340.35603594  .00000027  00000+0  00000+0 0  9993
2 39773   0.0649  10.0268 0004732 220.9183 335.7222  1.00271568 42132
EUTELSAT 115 WEST B     
1 40425U 15010B   25340.44963448 -.00000018  00000+0  00000+0 0  9996
2 40425   0.0070 143.6476 0000312 276.9333  61.9058  1.00271104 39461
